CCSDS_OMM_VERS = 2.0
CREATION_DATE  = 
ORIGINATOR     = 

OBJECT_NAME    = SILVERSAT
OBJECT_ID      = 1998-067XV
CENTER_NAME    = EARTH
REF_FRAME      = TEME
TIME_SYSTEM    = UTC
MEAN_ELEMENT_THEORY = SGP/SGP4

EPOCH          = 2026-02-01T23:30:11.876832
MEAN_MOTION    = 15.61309879
ECCENTRICITY   = .00031263
INCLINATION    = 51.6268
RA_OF_ASC_NODE = 246.2002
ARG_OF_PERICENTER = 179.6588
MEAN_ANOMALY   = 180.4408

EPHEMERIS_TYPE = 0
CLASSIFICATION_TYPE = U
NORAD_CAT_ID   = 66909
ELEMENT_SET_NO = 999
REV_AT_EPOCH   = 959
BSTAR          = .10237603E-2
MEAN_MOTION_DOT = .89215E-3
MEAN_MOTION_DDOT = 0

CCSDS_OMM_VERS = 2.0
CREATION_DATE  = 
ORIGINATOR     = 

OBJECT_NAME    = 1998-067XW
OBJECT_ID      = 1998-067XW
CENTER_NAME    = EARTH
REF_FRAME      = TEME
TIME_SYSTEM    = UTC
MEAN_ELEMENT_THEORY = SGP/SGP4

EPOCH          = 2026-02-01T23:44:30.175296
MEAN_MOTION    = 15.60202785
ECCENTRICITY   = .00013884
INCLINATION    = 51.6254
RA_OF_ASC_NODE = 246.2626
ARG_OF_PERICENTER = 171.5484
MEAN_ANOMALY   = 188.5532

EPHEMERIS_TYPE = 0
CLASSIFICATION_TYPE = U
NORAD_CAT_ID   = 66910
ELEMENT_SET_NO = 999
REV_AT_EPOCH   = 959
BSTAR          = .87806889E-3
MEAN_MOTION_DOT = .73088E-3
MEAN_MOTION_DDOT = 0

CCSDS_OMM_VERS = 2.0
CREATION_DATE  = 
ORIGINATOR     = 

OBJECT_NAME    = 1998-067XX
OBJECT_ID      = 1998-067XX
CENTER_NAME    = EARTH
REF_FRAME      = TEME
TIME_SYSTEM    = UTC
MEAN_ELEMENT_THEORY = SGP/SGP4

EPOCH          = 2026-02-01T22:54:17.749440
MEAN_MOTION    = 15.62370847
ECCENTRICITY   = .00023873
INCLINATION    = 51.6240
RA_OF_ASC_NODE = 246.0290
ARG_OF_PERICENTER = 201.7752
MEAN_ANOMALY   = 158.3140

EPHEMERIS_TYPE = 0
CLASSIFICATION_TYPE = U
NORAD_CAT_ID   = 66911
ELEMENT_SET_NO = 999
REV_AT_EPOCH   = 958
BSTAR          = .10157917E-2
MEAN_MOTION_DOT = .92278E-3
MEAN_MOTION_DDOT = 0

CCSDS_OMM_VERS = 2.0
CREATION_DATE  = 
ORIGINATOR     = 

OBJECT_NAME    = 1998-067XY
OBJECT_ID      = 1998-067XY
CENTER_NAME    = EARTH
REF_FRAME      = TEME
TIME_SYSTEM    = UTC
MEAN_ELEMENT_THEORY = SGP/SGP4

EPOCH          = 2026-02-01T23:25:44.553504
MEAN_MOTION    = 15.57686086
ECCENTRICITY   = .00021101
INCLINATION    = 51.6275
RA_OF_ASC_NODE = 246.9309
ARG_OF_PERICENTER = 133.5266
MEAN_ANOMALY   = 226.5902

EPHEMERIS_TYPE = 0
CLASSIFICATION_TYPE = U
NORAD_CAT_ID   = 66912
ELEMENT_SET_NO = 999
REV_AT_EPOCH   = 957
BSTAR          = .71915624E-3
MEAN_MOTION_DOT = .54174E-3
MEAN_MOTION_DDOT = 0

