SILVERSAT               
1 66909U 98067XV  26032.97930413  .00089215  00000+0  10238-2 0  9999
2 66909  51.6268 246.2002 0003126 179.6588 180.4408 15.61309879  9599
1998-067XW              
1 66910U 98067XW  26032.98923814  .00073088  00000+0  87807-3 0  9997
2 66910  51.6254 246.2626 0001388 171.5484 188.5532 15.60202785  9596
1998-067XX              
1 66911U 98067XX  26032.95437210  .00092278  00000+0  10158-2 0  9991
2 66911  51.6240 246.0290 0002387 201.7752 158.3140 15.62370847  9587
1998-067XY              
1 66912U 98067XY  26032.97621011  .00054174  00000+0  71916-3 0  9991
2 66912  51.6275 246.9309 0002110 133.5266 226.5902 15.57686086  9574
